PROGRESS-MS 32          
1 65586U 25204A   25307.77750668  .00010400  00000+0  19172-3 0  9993
2 65586  51.6338 335.3649 0004999  13.8862 346.2263 15.49729876   273
CYGNUS NG-23            
1 65616U 25208A   25307.77750668  .00010400  00000+0  19172-3 0  9991
2 65616  51.6338 335.3649 0004999  13.8862 346.2263 15.49729876   222
DRAGONFLY               
1 65729U 98067XH  25307.35234976  .00089643  00000+0  10812-2 0  9998
2 65729  51.6315 335.5297 0003631  71.0285 289.1102 15.60005687  6997
1998-067XJ              
1 65730U 98067XJ  25307.44012002  .00260766  00000+0  21515-2 0  9993
2 65730  51.6281 333.8588 0011034  51.7909 308.4080 15.68907895  7024
1998-067XK              
1 65731U 98067XK  25307.44330535  .00065369  00000+0  85720-3 0  9999
2 65731  51.6320 335.3882 0005038  50.1206 310.0228 15.57923955  7007
RSP-03                  
1 65732U 98067XL  25307.36605223  .00077697  00000+0  97820-3 0  9991
2 65732  51.6313 335.6218 0005784  50.5301 309.6203 15.58927947  7007
GHS-01                  
1 65733U 98067XM  25307.34326280  .00100668  00000+0  11782-2 0  9990
2 65733  51.6327 335.4708 0004095  67.6051 292.5376 15.60739155  7006
YOTSUBA-KULOVER         
1 65941U 98067XN  25307.80288005  .00054932  00000+0  85064-3 0  9991
2 65941  51.6325 334.7856 0002645   1.5585 358.5413 15.53493482  3798
BOTAN                   
1 65942U 98067XP  25307.79562075  .00074105  00000+0  11038-2 0  9995
2 65942  51.6325 334.7378 0004805  16.4520 343.6625 15.54427286  3792
E-KAGAKU-1              
1 65943U 98067XQ  25307.35213755  .00049569  00000+0  76995-3 0  9996
2 65943  51.6338 337.0259 0004475   1.7618 358.3388 15.53447140  3721
HRC MONOBLOCK CAMERA    
1 66052U 98067XR  25307.64096795  .00030918  00000+0  53300-3 0  9996
2 66052  51.6321 335.9532 0004513  23.2101 336.9091 15.50757974  2767
HTV-X1                  
1 66174U 25241A   25307.77750668  .00010400  00000+0  19172-3 0  9998
2 66174  51.6338 335.3649 0004999  13.8862 346.2263 15.49729876  1335
